[{"OBJECT_NAME":"KUIPER-00241","OBJECT_ID":"2025-301S","EPOCH":"2026-03-09T06:38:31.196544","MEAN_MOTION":14.79876091,"ECCENTRICITY":6.519e-5,"INCLINATION":51.9025,"RA_OF_ASC_NODE":77.4378,"ARG_OF_PERICENTER":133.9067,"MEAN_ANOMALY":226.1949,"EPHEMERIS_TYPE":0,"CLASSIFICATION_TYPE":"U","NORAD_CAT_ID":67149,"ELEMENT_SET_NO":999,"REV_AT_EPOCH":1386,"BSTAR":0.00047617526,"MEAN_MOTION_DOT":3.406e-5,"MEAN_MOTION_DDOT":0},{"OBJECT_NAME":"EDUSAT","OBJECT_ID":"2011-044A","EPOCH":"2026-03-09T22:52:30.156384","MEAN_MOTION":14.76325715,"ECCENTRICITY":0.00358193,"INCLINATION":98.2805,"RA_OF_ASC_NODE":324.1841,"ARG_OF_PERICENTER":78.1309,"MEAN_ANOMALY":345.7812,"EPHEMERIS_TYPE":0,"CLASSIFICATION_TYPE":"U","NORAD_CAT_ID":37788,"ELEMENT_SET_NO":999,"REV_AT_EPOCH":78188,"BSTAR":0.00020679176,"MEAN_MOTION_DOT":1.394e-5,"MEAN_MOTION_DDOT":0}]
